{
"type": "FeatureCollection",
"name": "wood",
"crs": { "type": "name", "properties": { "name": "urn:ogc:def:crs:OGC:1.3:CRS84" } },
"features": [
{ "type": "Feature", "properties": { "full_id": "w313510586", "osm_id": "313510586", "osm_type": "way", "natural": "wood" }, "geometry": { "type": "MultiPolygon", "coordinates": [ [ [ [ 20.1756623, 54.949112 ], [ 20.1753955, 54.9496371 ], [ 20.1752809, 54.9495692 ], [ 20.1750447, 54.9496056 ], [ 20.1747844, 54.9496634 ], [ 20.1746313, 54.9497388 ], [ 20.174675, 54.9498406 ], [ 20.1744738, 54.9499071 ], [ 20.174336, 54.9499486 ], [ 20.1741588, 54.949877 ], [ 20.1740516, 54.949784 ], [ 20.1739335, 54.9497614 ], [ 20.1737585, 54.9497576 ], [ 20.1737366, 54.9498393 ], [ 20.1736579, 54.9498657 ], [ 20.1736185, 54.9499599 ], [ 20.1736163, 54.9499988 ], [ 20.1740691, 54.9500667 ], [ 20.174126, 54.9499913 ], [ 20.1741741, 54.9499599 ], [ 20.1742222, 54.9500604 ], [ 20.17422, 54.9501345 ], [ 20.1741325, 54.9501848 ], [ 20.1740932, 54.9501634 ], [ 20.1739269, 54.9501885 ], [ 20.1737869, 54.950181 ], [ 20.1737672, 54.9501609 ], [ 20.1736929, 54.9501734 ], [ 20.1734734, 54.949992 ], [ 20.173535, 54.9498765 ], [ 20.1736557, 54.9497225 ], [ 20.1737282, 54.9496578 ], [ 20.1738489, 54.9495746 ], [ 20.1739857, 54.9496039 ], [ 20.1741332, 54.9495777 ], [ 20.1743048, 54.9495053 ], [ 20.1745731, 54.9494606 ], [ 20.1746696, 54.9493882 ], [ 20.1743896, 54.9491227 ], [ 20.174278, 54.9491063 ], [ 20.1741439, 54.9490878 ], [ 20.1739937, 54.949134 ], [ 20.173704, 54.9491926 ], [ 20.1736692, 54.9492665 ], [ 20.1733527, 54.9494175 ], [ 20.1731464, 54.9494844 ], [ 20.1730199, 54.9496124 ], [ 20.1729309, 54.9495964 ], [ 20.1727779, 54.9495425 ], [ 20.1726075, 54.9495096 ], [ 20.1724561, 54.9495039 ], [ 20.1723281, 54.9494947 ], [ 20.172174, 54.9494523 ], [ 20.1720138, 54.9494571 ], [ 20.1718461, 54.9494511 ], [ 20.1716695, 54.9494775 ], [ 20.1719798, 54.9489968 ], [ 20.1718153, 54.9488123 ], [ 20.1714732, 54.9489078 ], [ 20.1713059, 54.9488885 ], [ 20.1710693, 54.9489853 ], [ 20.1708868, 54.9490108 ], [ 20.1707047, 54.9490012 ], [ 20.1705116, 54.9489846 ], [ 20.1702384, 54.9489861 ], [ 20.1700793, 54.9489892 ], [ 20.1699158, 54.948991 ], [ 20.1697082, 54.948954 ], [ 20.1695152, 54.9489437 ], [ 20.1693805, 54.948925 ], [ 20.1691413, 54.9488664 ], [ 20.1689173, 54.9488387 ], [ 20.1688094, 54.9488122 ], [ 20.1686412, 54.9488956 ], [ 20.1685141, 54.9488459 ], [ 20.1683773, 54.9488094 ], [ 20.1682087, 54.9487391 ], [ 20.1679918, 54.9487335 ], [ 20.167766, 54.9486821 ], [ 20.1674538, 54.9486461 ], [ 20.1672112, 54.9485976 ], [ 20.1671071, 54.9485684 ], [ 20.1668466, 54.9485364 ], [ 20.1666749, 54.9484741 ], [ 20.1665781, 54.9484565 ], [ 20.1662628, 54.9483705 ], [ 20.1659992, 54.9482861 ], [ 20.1655572, 54.9482326 ], [ 20.1653067, 54.9482433 ], [ 20.1648798, 54.948158 ], [ 20.1645147, 54.9480567 ], [ 20.1635161, 54.9478092 ], [ 20.1630743, 54.9476977 ], [ 20.162098, 54.9474829 ], [ 20.1619872, 54.9474712 ], [ 20.1617614, 54.9474324 ], [ 20.1615929, 54.94741 ], [ 20.1612068, 54.9473191 ], [ 20.1609713, 54.9471727 ], [ 20.1608097, 54.9471284 ], [ 20.1605818, 54.9471009 ], [ 20.1602327, 54.94708 ], [ 20.1599121, 54.9470396 ], [ 20.1594742, 54.94699 ], [ 20.1590688, 54.9469614 ], [ 20.1586834, 54.9468983 ], [ 20.1582874, 54.9468379 ], [ 20.1580002, 54.9468214 ], [ 20.1578391, 54.9467996 ], [ 20.157787, 54.946801 ], [ 20.1577119, 54.9467907 ], [ 20.1575965, 54.9467682 ], [ 20.1575173, 54.9467591 ], [ 20.1574008, 54.9467289 ], [ 20.1572261, 54.9467055 ], [ 20.1569965, 54.9466534 ], [ 20.156727, 54.94659 ], [ 20.1564501, 54.9465592 ], [ 20.1561926, 54.9465453 ], [ 20.1560026, 54.9465389 ], [ 20.1558816, 54.9465123 ], [ 20.155771, 54.9464903 ], [ 20.1556362, 54.9464727 ], [ 20.1552636, 54.9464435 ], [ 20.154813, 54.9464456 ], [ 20.1548564, 54.9462822 ], [ 20.1549615, 54.9460743 ], [ 20.155144, 54.9459464 ], [ 20.1553526, 54.9457093 ], [ 20.1554887, 54.9454712 ], [ 20.1555642, 54.9454481 ], [ 20.1556942, 54.9454588 ], [ 20.155811, 54.9455197 ], [ 20.1558598, 54.945574 ], [ 20.1558456, 54.9457609 ], [ 20.1558879, 54.9458489 ], [ 20.1560097, 54.9459231 ], [ 20.1561187, 54.945983 ], [ 20.1561718, 54.9460835 ], [ 20.1561674, 54.946162 ], [ 20.1563, 54.9461593 ], [ 20.1564353, 54.9460161 ], [ 20.1565475, 54.9459668 ], [ 20.1566504, 54.9459819 ], [ 20.1567679, 54.9460362 ], [ 20.1568612, 54.9461126 ], [ 20.1570874, 54.9460148 ], [ 20.1572674, 54.9459978 ], [ 20.1574552, 54.9457084 ], [ 20.1575789, 54.9455945 ], [ 20.1576108, 54.9455452 ], [ 20.1575864, 54.9454482 ], [ 20.1575323, 54.9453891 ], [ 20.1575206, 54.9453122 ], [ 20.1575468, 54.9452667 ], [ 20.1574709, 54.945254 ], [ 20.1574088, 54.9452091 ], [ 20.157297, 54.9451553 ], [ 20.1570293, 54.945037 ], [ 20.1569179, 54.9449872 ], [ 20.156989, 54.9448522 ], [ 20.1570385, 54.94479 ], [ 20.1568406, 54.9447367 ], [ 20.1566673, 54.9447243 ], [ 20.1565003, 54.944774 ], [ 20.1562899, 54.9447669 ], [ 20.1562002, 54.9446941 ], [ 20.1562373, 54.9445715 ], [ 20.1564632, 54.9444791 ], [ 20.1566085, 54.9444453 ], [ 20.1566828, 54.9443618 ], [ 20.1566828, 54.9442481 ], [ 20.1566921, 54.9442001 ], [ 20.156822, 54.944145 ], [ 20.1569272, 54.9441681 ], [ 20.1569457, 54.9443174 ], [ 20.1569055, 54.9445501 ], [ 20.1569241, 54.9446372 ], [ 20.1570447, 54.9446656 ], [ 20.1572211, 54.9446141 ], [ 20.1574159, 54.9446336 ], [ 20.1576913, 54.9446292 ], [ 20.1578614, 54.9446354 ], [ 20.1579449, 54.9447225 ], [ 20.1580934, 54.944742 ], [ 20.1582636, 54.944742 ], [ 20.1584059, 54.9447172 ], [ 20.1584306, 54.9446141 ], [ 20.1586812, 54.9445981 ], [ 20.158972, 54.9446052 ], [ 20.1590991, 54.9446832 ], [ 20.1590783, 54.9448089 ], [ 20.1581825, 54.9448675 ], [ 20.1578324, 54.9449634 ], [ 20.157743, 54.9450845 ], [ 20.1577079, 54.9451344 ], [ 20.157706, 54.9452098 ], [ 20.1577342, 54.9452743 ], [ 20.1577446, 54.9453896 ], [ 20.1579508, 54.9454675 ], [ 20.1582093, 54.9455097 ], [ 20.1584556, 54.9457155 ], [ 20.1585643, 54.9459608 ], [ 20.1585529, 54.9460922 ], [ 20.1584821, 54.9462427 ], [ 20.1585298, 54.9462976 ], [ 20.1586094, 54.9463357 ], [ 20.1587686, 54.9463692 ], [ 20.1590754, 54.9464134 ], [ 20.15914, 54.9464225 ], [ 20.1592833, 54.9465079 ], [ 20.1595221, 54.9465338 ], [ 20.1596945, 54.9464195 ], [ 20.159859, 54.9463555 ], [ 20.1600209, 54.9463387 ], [ 20.1601694, 54.9463905 ], [ 20.1602756, 54.9464454 ], [ 20.1603896, 54.9464865 ], [ 20.1606337, 54.9464972 ], [ 20.1607823, 54.9464439 ], [ 20.1607324, 54.9463294 ], [ 20.1609155, 54.9459484 ], [ 20.160975, 54.9450995 ], [ 20.1610706, 54.9450202 ], [ 20.1612937, 54.9450805 ], [ 20.1614216, 54.9451723 ], [ 20.1616839, 54.9451682 ], [ 20.1617574, 54.9451534 ], [ 20.1620221, 54.9450156 ], [ 20.1621728, 54.9448947 ], [ 20.1622789, 54.9447915 ], [ 20.1622675, 54.944273 ], [ 20.1617695, 54.9442784 ], [ 20.1617748, 54.9448029 ], [ 20.1615939, 54.9448407 ], [ 20.1613525, 54.9448068 ], [ 20.1613391, 54.9446527 ], [ 20.1613579, 54.944548 ], [ 20.1613892, 54.9444938 ], [ 20.1613873, 54.9442426 ], [ 20.1613086, 54.9441794 ], [ 20.1610568, 54.9441733 ], [ 20.1607195, 54.9442322 ], [ 20.1607275, 54.9444509 ], [ 20.1606497, 54.9444956 ], [ 20.1605451, 54.9444941 ], [ 20.1605156, 54.9444478 ], [ 20.160572, 54.9443277 ], [ 20.1605423, 54.9441594 ], [ 20.1603301, 54.944135 ], [ 20.160078, 54.9441792 ], [ 20.1599931, 54.9440939 ], [ 20.1599944, 54.9440085 ], [ 20.161378, 54.9437738 ], [ 20.1614337, 54.9439415 ], [ 20.1614509, 54.9440247 ], [ 20.1615999, 54.9440126 ], [ 20.1617761, 54.9440066 ], [ 20.1619708, 54.9439393 ], [ 20.1621575, 54.9439308 ], [ 20.1622751, 54.9439317 ], [ 20.1623261, 54.9439708 ], [ 20.1624158, 54.9439903 ], [ 20.1625195, 54.9439646 ], [ 20.1625962, 54.9439446 ], [ 20.1626302, 54.9438815 ], [ 20.1626101, 54.9437829 ], [ 20.1626395, 54.9437207 ], [ 20.1627122, 54.9436683 ], [ 20.1628034, 54.9436434 ], [ 20.1631076, 54.9435558 ], [ 20.1632959, 54.9434794 ], [ 20.1635125, 54.943442 ], [ 20.1636161, 54.9434598 ], [ 20.1636888, 54.9435016 ], [ 20.1637027, 54.9435495 ], [ 20.1636981, 54.9435895 ], [ 20.1636439, 54.9436446 ], [ 20.1635681, 54.9436881 ], [ 20.1635465, 54.9437299 ], [ 20.1636056, 54.9437801 ], [ 20.1636712, 54.9438568 ], [ 20.1636734, 54.9439397 ], [ 20.1636427, 54.9440076 ], [ 20.1636296, 54.9440515 ], [ 20.1636602, 54.9441018 ], [ 20.1636965, 54.9442142 ], [ 20.1638379, 54.9442604 ], [ 20.1639787, 54.9442497 ], [ 20.164084, 54.9441969 ], [ 20.1642302, 54.9441872 ], [ 20.1642565, 54.944245 ], [ 20.1642718, 54.944289 ], [ 20.1643553, 54.9443423 ], [ 20.1643584, 54.9444631 ], [ 20.164312, 54.9445164 ], [ 20.1641852, 54.9445386 ], [ 20.1641589, 54.9445982 ], [ 20.1641775, 54.9446586 ], [ 20.1642037, 54.9447151 ], [ 20.1641884, 54.944754 ], [ 20.1641359, 54.9449199 ], [ 20.1641556, 54.9450129 ], [ 20.1641711, 54.9450994 ], [ 20.1641684, 54.9452589 ], [ 20.1641904, 54.9453766 ], [ 20.1646388, 54.9454021 ], [ 20.1648745, 54.9455931 ], [ 20.164822, 54.9458343 ], [ 20.164507, 54.9458971 ], [ 20.164332, 54.9458318 ], [ 20.1642576, 54.9456207 ], [ 20.1641964, 54.9454147 ], [ 20.1639951, 54.9453594 ], [ 20.1637283, 54.9454298 ], [ 20.1636976, 54.9455202 ], [ 20.1633214, 54.9455554 ], [ 20.1633126, 54.9457464 ], [ 20.1632295, 54.9458745 ], [ 20.163072, 54.9459549 ], [ 20.1629364, 54.9459801 ], [ 20.1627527, 54.9459474 ], [ 20.1625339, 54.9458846 ], [ 20.1624158, 54.945774 ], [ 20.1622671, 54.9457162 ], [ 20.1620658, 54.9457313 ], [ 20.1620614, 54.9456207 ], [ 20.1621752, 54.9455253 ], [ 20.1622058, 54.9454273 ], [ 20.1621664, 54.9453745 ], [ 20.1619477, 54.9453795 ], [ 20.1618952, 54.9453343 ], [ 20.1618689, 54.9452388 ], [ 20.1618379, 54.9452106 ], [ 20.1617377, 54.9452137 ], [ 20.161764, 54.945377 ], [ 20.1618996, 54.9454675 ], [ 20.1619871, 54.9455152 ], [ 20.1619827, 54.9456408 ], [ 20.1619433, 54.9457238 ], [ 20.1618996, 54.9458393 ], [ 20.1619389, 54.9459399 ], [ 20.1621927, 54.9459625 ], [ 20.1623589, 54.9459147 ], [ 20.1625514, 54.9459926 ], [ 20.1626783, 54.9460806 ], [ 20.1628402, 54.9461434 ], [ 20.1630239, 54.9462615 ], [ 20.1632164, 54.9463469 ], [ 20.1633214, 54.9464399 ], [ 20.1635445, 54.9466258 ], [ 20.1637283, 54.9466585 ], [ 20.1639601, 54.9465479 ], [ 20.1639251, 54.9464399 ], [ 20.1636495, 54.946362 ], [ 20.163562, 54.9462715 ], [ 20.1636014, 54.9461308 ], [ 20.1639251, 54.9460755 ], [ 20.1644107, 54.9460906 ], [ 20.1647213, 54.9460931 ], [ 20.1648657, 54.9461233 ], [ 20.1651807, 54.9463695 ], [ 20.165268, 54.9464079 ], [ 20.1653077, 54.9468578 ], [ 20.1656313, 54.9469173 ], [ 20.1657494, 54.9470002 ], [ 20.1658719, 54.9471032 ], [ 20.1661257, 54.947161 ], [ 20.1664319, 54.9471409 ], [ 20.1665369, 54.9470655 ], [ 20.1667294, 54.9470077 ], [ 20.1668913, 54.9469801 ], [ 20.16697, 54.9468746 ], [ 20.1671188, 54.9468419 ], [ 20.16732, 54.9468896 ], [ 20.1674775, 54.9470153 ], [ 20.1676087, 54.9471635 ], [ 20.1678187, 54.9472263 ], [ 20.1681206, 54.9472188 ], [ 20.1683743, 54.9471585 ], [ 20.1685318, 54.9470655 ], [ 20.1685281, 54.9470413 ], [ 20.1685187, 54.9469801 ], [ 20.1683621, 54.9469394 ], [ 20.168335, 54.9469324 ], [ 20.1679412, 54.9468921 ], [ 20.1678187, 54.9468444 ], [ 20.1678012, 54.946759 ], [ 20.1678668, 54.9466635 ], [ 20.1679543, 54.9465856 ], [ 20.1679675, 54.9465077 ], [ 20.1679325, 54.9464298 ], [ 20.1677619, 54.9463444 ], [ 20.1676437, 54.9462992 ], [ 20.1676394, 54.946264 ], [ 20.1677269, 54.9460906 ], [ 20.16788, 54.9460002 ], [ 20.1679106, 54.9459097 ], [ 20.1677487, 54.9458343 ], [ 20.167565, 54.9457841 ], [ 20.1673681, 54.9456936 ], [ 20.1672237, 54.9455931 ], [ 20.1671756, 54.9455077 ], [ 20.1671669, 54.9454373 ], [ 20.1671756, 54.9453242 ], [ 20.1674425, 54.9452966 ], [ 20.1676437, 54.9452765 ], [ 20.1676919, 54.9452313 ], [ 20.1676744, 54.9451257 ], [ 20.1675606, 54.9450855 ], [ 20.1675037, 54.9450654 ], [ 20.1674994, 54.9450001 ], [ 20.1675387, 54.9449524 ], [ 20.1676087, 54.9448921 ], [ 20.16774, 54.9448091 ], [ 20.1677925, 54.9447287 ], [ 20.1677969, 54.9446533 ], [ 20.1677444, 54.9445729 ], [ 20.1675694, 54.944534 ], [ 20.1670745, 54.9446057 ], [ 20.1669848, 54.9446012 ], [ 20.1668425, 54.9446004 ], [ 20.1667899, 54.9445559 ], [ 20.1667852, 54.9445311 ], [ 20.166827, 54.9444786 ], [ 20.1668533, 54.9444387 ], [ 20.1668487, 54.9444058 ], [ 20.1668727, 54.9443464 ], [ 20.1669602, 54.9442496 ], [ 20.167039, 54.9442057 ], [ 20.1671396, 54.9441391 ], [ 20.1672665, 54.9440524 ], [ 20.1673758, 54.9440021 ], [ 20.1675333, 54.943987 ], [ 20.1676318, 54.943977 ], [ 20.1677564, 54.9439833 ], [ 20.1678855, 54.9440474 ], [ 20.1679183, 54.944134 ], [ 20.1679861, 54.9441554 ], [ 20.1681086, 54.9441592 ], [ 20.1682333, 54.9441843 ], [ 20.1683186, 54.9442547 ], [ 20.1683715, 54.9443841 ], [ 20.168424, 54.9446228 ], [ 20.1684677, 54.9448163 ], [ 20.1685727, 54.944962 ], [ 20.1686952, 54.9450726 ], [ 20.1688527, 54.9452359 ], [ 20.1689315, 54.9453414 ], [ 20.1690058, 54.9454897 ], [ 20.1690977, 54.9455826 ], [ 20.1692549, 54.9455985 ], [ 20.1694128, 54.9455964 ], [ 20.1695571, 54.9456656 ], [ 20.1697233, 54.9457058 ], [ 20.1699508, 54.9456756 ], [ 20.1700952, 54.9455701 ], [ 20.1700952, 54.9454394 ], [ 20.1699245, 54.9454344 ], [ 20.1695789, 54.9455148 ], [ 20.1695046, 54.9454595 ], [ 20.1695921, 54.945359 ], [ 20.1696883, 54.9452786 ], [ 20.1695789, 54.9451731 ], [ 20.1693864, 54.9450248 ], [ 20.1692202, 54.9448313 ], [ 20.1690277, 54.944761 ], [ 20.1688615, 54.9447409 ], [ 20.1691021, 54.9446404 ], [ 20.1694258, 54.9445725 ], [ 20.1703489, 54.9453088 ], [ 20.1708041, 54.945605 ], [ 20.1718645, 54.9464006 ], [ 20.1721615, 54.9466689 ], [ 20.1721491, 54.9467257 ], [ 20.1718522, 54.9467595 ], [ 20.1717594, 54.9468465 ], [ 20.1717563, 54.9469176 ], [ 20.1718553, 54.9469727 ], [ 20.172013, 54.9469762 ], [ 20.1721522, 54.9469389 ], [ 20.1722172, 54.9469496 ], [ 20.17231, 54.9470171 ], [ 20.172409, 54.9470828 ], [ 20.1726163, 54.9470899 ], [ 20.1726689, 54.9470562 ], [ 20.1728514, 54.9472285 ], [ 20.172949, 54.9473712 ], [ 20.1727697, 54.9474441 ], [ 20.1725159, 54.947532 ], [ 20.1723409, 54.9475949 ], [ 20.1723497, 54.9476426 ], [ 20.1723956, 54.9476727 ], [ 20.1722469, 54.9477067 ], [ 20.1722294, 54.9476552 ], [ 20.1720369, 54.9476753 ], [ 20.1719844, 54.9476916 ], [ 20.1719166, 54.9477871 ], [ 20.1717197, 54.9478034 ], [ 20.1714681, 54.9478185 ], [ 20.171178, 54.9478601 ], [ 20.1708811, 54.9478903 ], [ 20.1705593, 54.94794 ], [ 20.1703304, 54.9479542 ], [ 20.1701201, 54.9480058 ], [ 20.1701015, 54.948107 ], [ 20.1699871, 54.9481816 ], [ 20.1699159, 54.9482474 ], [ 20.1699561, 54.94837 ], [ 20.1700273, 54.9484606 ], [ 20.1702253, 54.9484268 ], [ 20.1703706, 54.9483913 ], [ 20.1704449, 54.9484552 ], [ 20.1705377, 54.948457 ], [ 20.1707821, 54.9484162 ], [ 20.1708223, 54.9484801 ], [ 20.1706491, 54.9485299 ], [ 20.1704975, 54.9485565 ], [ 20.1704604, 54.9486222 ], [ 20.1705439, 54.9486898 ], [ 20.1707047, 54.9486986 ], [ 20.170742, 54.9487359 ], [ 20.1708356, 54.9488594 ], [ 20.1710119, 54.9488159 ], [ 20.170923, 54.9486871 ], [ 20.1709547, 54.9486578 ], [ 20.1709933, 54.948616 ], [ 20.1710258, 54.9485645 ], [ 20.171083, 54.9485307 ], [ 20.1711635, 54.9485174 ], [ 20.171196, 54.9484917 ], [ 20.171182, 54.9484464 ], [ 20.1711449, 54.9484108 ], [ 20.1711155, 54.9483691 ], [ 20.1711248, 54.94833 ], [ 20.1712965, 54.948131 ], [ 20.171337, 54.9480827 ], [ 20.1714836, 54.9479948 ], [ 20.1717177, 54.9479596 ], [ 20.1716433, 54.9480626 ], [ 20.1715908, 54.9481368 ], [ 20.1716258, 54.9481958 ], [ 20.1715755, 54.9482536 ], [ 20.1716345, 54.9483755 ], [ 20.1719292, 54.9483348 ], [ 20.1719864, 54.9483539 ], [ 20.1721494, 54.9483404 ], [ 20.1723354, 54.9483014 ], [ 20.1724426, 54.9482725 ], [ 20.1725279, 54.9482486 ], [ 20.1726044, 54.9481858 ], [ 20.1726854, 54.9481318 ], [ 20.1727593, 54.9480881 ], [ 20.1727825, 54.9480508 ], [ 20.1723247, 54.9479051 ], [ 20.1723108, 54.9478678 ], [ 20.1724191, 54.9478376 ], [ 20.1726402, 54.9479024 ], [ 20.1728735, 54.947917 ], [ 20.1729676, 54.9478906 ], [ 20.1729567, 54.9478479 ], [ 20.1730376, 54.9478115 ], [ 20.1730436, 54.9473981 ], [ 20.1729146, 54.9471406 ], [ 20.1726805, 54.9469504 ], [ 20.1726032, 54.9468455 ], [ 20.1725568, 54.9467301 ], [ 20.1726558, 54.9466288 ], [ 20.1727207, 54.9465861 ], [ 20.1726527, 54.9464938 ], [ 20.1728565, 54.94638 ], [ 20.1730075, 54.946342 ], [ 20.1730833, 54.9463811 ], [ 20.1734112, 54.9469017 ], [ 20.1736128, 54.9471986 ], [ 20.1737365, 54.9473176 ], [ 20.173851, 54.9473727 ], [ 20.1740335, 54.947378 ], [ 20.1741046, 54.9474171 ], [ 20.1740923, 54.9474793 ], [ 20.1738881, 54.9475326 ], [ 20.1736437, 54.9475859 ], [ 20.173622, 54.9476978 ], [ 20.1737334, 54.9477351 ], [ 20.1739469, 54.9476765 ], [ 20.1741387, 54.9476943 ], [ 20.17425, 54.9478222 ], [ 20.1743552, 54.9478986 ], [ 20.1745841, 54.9479163 ], [ 20.1745996, 54.9480141 ], [ 20.1745346, 54.9481064 ], [ 20.1744635, 54.9481828 ], [ 20.1744944, 54.9482752 ], [ 20.1742779, 54.9483427 ], [ 20.1740397, 54.9484085 ], [ 20.1740582, 54.9485453 ], [ 20.1742933, 54.948675 ], [ 20.1744418, 54.9488011 ], [ 20.1745594, 54.9488171 ], [ 20.1748192, 54.9487425 ], [ 20.1749832, 54.9487602 ], [ 20.1750822, 54.9488224 ], [ 20.1752214, 54.9489539 ], [ 20.1753637, 54.9490694 ], [ 20.1756623, 54.949112 ] ] ] ] } },
{ "type": "Feature", "properties": { "full_id": "w314420958", "osm_id": "314420958", "osm_type": "way", "natural": "wood" }, "geometry": { "type": "MultiPolygon", "coordinates": [ [ [ [ 20.1551144, 54.9453779 ], [ 20.1547242, 54.9456404 ], [ 20.154503, 54.945801 ], [ 20.1544243, 54.9459464 ], [ 20.1543137, 54.9460769 ], [ 20.1542351, 54.9461337 ], [ 20.1540517, 54.9461789 ], [ 20.1537896, 54.9461672 ], [ 20.1536991, 54.9461927 ], [ 20.1537401, 54.9462408 ], [ 20.1542351, 54.9462809 ], [ 20.1543341, 54.9463177 ], [ 20.154337, 54.9463612 ], [ 20.1542991, 54.9463745 ], [ 20.1535091, 54.9462942 ], [ 20.1541024, 54.9453922 ], [ 20.1531315, 54.9452104 ], [ 20.152558, 54.9461974 ], [ 20.1514051, 54.9460802 ], [ 20.1514255, 54.9459883 ], [ 20.1512682, 54.9459598 ], [ 20.1511955, 54.9459314 ], [ 20.1511809, 54.9458628 ], [ 20.1509625, 54.945801 ], [ 20.1507471, 54.9458026 ], [ 20.1506335, 54.9458846 ], [ 20.15052, 54.9458402 ], [ 20.1503988, 54.945781 ], [ 20.1501409, 54.9457416 ], [ 20.1499581, 54.9456872 ], [ 20.1497601, 54.945622 ], [ 20.1495563, 54.9455418 ], [ 20.1494398, 54.9454531 ], [ 20.1494107, 54.9453578 ], [ 20.1494398, 54.9452458 ], [ 20.1493475, 54.9451951 ], [ 20.1491458, 54.9451313 ], [ 20.1490653, 54.9449963 ], [ 20.1490741, 54.9448492 ], [ 20.1491323, 54.9447288 ], [ 20.149077, 54.9446585 ], [ 20.1487538, 54.9446368 ], [ 20.1485209, 54.9446669 ], [ 20.1483578, 54.9446853 ], [ 20.148221, 54.9446669 ], [ 20.1479531, 54.9446635 ], [ 20.1477318, 54.9446435 ], [ 20.1475309, 54.944605 ], [ 20.1474087, 54.9445548 ], [ 20.1473679, 54.9444762 ], [ 20.1473883, 54.9444294 ], [ 20.1474523, 54.9443893 ], [ 20.147627, 54.9443609 ], [ 20.1477202, 54.9443458 ], [ 20.1477813, 54.9442806 ], [ 20.1478192, 54.9442689 ], [ 20.1479007, 54.9442756 ], [ 20.1480317, 54.9442756 ], [ 20.1481482, 54.9442572 ], [ 20.1482297, 54.9442538 ], [ 20.148285, 54.9442739 ], [ 20.1483636, 54.9443057 ], [ 20.1484801, 54.9443224 ], [ 20.1485791, 54.9443358 ], [ 20.1486431, 54.9443308 ], [ 20.1486839, 54.9443073 ], [ 20.1487072, 54.9442304 ], [ 20.1487465, 54.944217 ], [ 20.149224, 54.9442635 ], [ 20.1492706, 54.9443103 ], [ 20.1493463, 54.9443371 ], [ 20.1495297, 54.9443404 ], [ 20.1498354, 54.9443053 ], [ 20.1505107, 54.9442675 ], [ 20.1521692, 54.9441783 ], [ 20.1523101, 54.9442207 ], [ 20.1523739, 54.9442857 ], [ 20.1522484, 54.944385 ], [ 20.1521104, 54.944508 ], [ 20.1519869, 54.9445269 ], [ 20.1519087, 54.9444785 ], [ 20.151884, 54.9443886 ], [ 20.1518593, 54.9442207 ], [ 20.1512066, 54.9442467 ], [ 20.1510945, 54.9442828 ], [ 20.1509298, 54.9442899 ], [ 20.1508279, 54.9442746 ], [ 20.1507682, 54.9442828 ], [ 20.1507548, 54.9443745 ], [ 20.1506221, 54.9444951 ], [ 20.1506066, 54.9445524 ], [ 20.1506663, 54.9445779 ], [ 20.150767, 54.9445718 ], [ 20.1514948, 54.94453 ], [ 20.1515938, 54.9445735 ], [ 20.1515988, 54.9446496 ], [ 20.1514763, 54.9447216 ], [ 20.151232, 54.944723 ], [ 20.1510901, 54.9446889 ], [ 20.1508863, 54.9447407 ], [ 20.1507058, 54.9447441 ], [ 20.15047, 54.9447341 ], [ 20.1503098, 54.9449648 ], [ 20.1502109, 54.9451404 ], [ 20.1502021, 54.945219 ], [ 20.1502924, 54.9452725 ], [ 20.1504496, 54.9452759 ], [ 20.1511513, 54.9452023 ], [ 20.1513056, 54.9452558 ], [ 20.1512998, 54.9453528 ], [ 20.1513391, 54.9453714 ], [ 20.1513842, 54.9453829 ], [ 20.1514599, 54.9453879 ], [ 20.151719, 54.9451454 ], [ 20.1518995, 54.94502 ], [ 20.1523853, 54.9450324 ], [ 20.1529948, 54.9448005 ], [ 20.153219, 54.9448189 ], [ 20.1535539, 54.9448725 ], [ 20.1536237, 54.9448942 ], [ 20.1534962, 54.9450514 ], [ 20.1534359, 54.9452153 ], [ 20.1536057, 54.9452915 ], [ 20.1538748, 54.945331 ], [ 20.1541992, 54.9449822 ], [ 20.1552821, 54.9451833 ], [ 20.1551042, 54.9453184 ], [ 20.1551144, 54.9453779 ] ] ] ] } }
]
}
