{
"type": "FeatureCollection",
"name": "groyne",
"crs": { "type": "name", "properties": { "name": "urn:ogc:def:crs:OGC:1.3:CRS84" } },
"features": [
{ "type": "Feature", "properties": { "full_id": "w729391730", "osm_id": "729391730", "osm_type": "way", "man_made": "groyne", "material": null }, "geometry": { "type": "LineString", "coordinates": [ [ 20.1518899, 54.9463577 ], [ 20.1509853, 54.9462633 ], [ 20.1508583, 54.9469466 ] ] } },
{ "type": "Feature", "properties": { "full_id": "w729391733", "osm_id": "729391733", "osm_type": "way", "man_made": "groyne", "material": "wood" }, "geometry": { "type": "LineString", "coordinates": [ [ 20.1728484, 54.9508546 ], [ 20.1731245, 54.9504172 ] ] } },
{ "type": "Feature", "properties": { "full_id": "w729391734", "osm_id": "729391734", "osm_type": "way", "man_made": "groyne", "material": "wood" }, "geometry": { "type": "LineString", "coordinates": [ [ 20.1719847, 54.9506451 ], [ 20.1722588, 54.9502223 ], [ 20.1723066, 54.9501553 ] ] } },
{ "type": "Feature", "properties": { "full_id": "w820249360", "osm_id": "820249360", "osm_type": "way", "man_made": "groyne", "material": "wood" }, "geometry": { "type": "LineString", "coordinates": [ [ 20.1750507, 54.9506474 ], [ 20.1746801, 54.9510297 ] ] } },
{ "type": "Feature", "properties": { "full_id": "w820249361", "osm_id": "820249361", "osm_type": "way", "man_made": "groyne", "material": "wood" }, "geometry": { "type": "LineString", "coordinates": [ [ 20.1756295, 54.9511652 ], [ 20.1759113, 54.9508527 ] ] } },
{ "type": "Feature", "properties": { "full_id": "w820249362", "osm_id": "820249362", "osm_type": "way", "man_made": "groyne", "material": "wood" }, "geometry": { "type": "LineString", "coordinates": [ [ 20.1760892, 54.9516954 ], [ 20.1767305, 54.9510488 ] ] } },
{ "type": "Feature", "properties": { "full_id": "w820249363", "osm_id": "820249363", "osm_type": "way", "man_made": "groyne", "material": "wood" }, "geometry": { "type": "LineString", "coordinates": [ [ 20.1732294, 54.9513188 ], [ 20.1741869, 54.9504412 ] ] } },
{ "type": "Feature", "properties": { "full_id": "w820249364", "osm_id": "820249364", "osm_type": "way", "man_made": "groyne", "material": "wood" }, "geometry": { "type": "LineString", "coordinates": [ [ 20.1710781, 54.9504803 ], [ 20.1714026, 54.9500765 ], [ 20.1715092, 54.9499881 ], [ 20.1706984, 54.9497582 ], [ 20.1703391, 54.9502563 ] ] } },
{ "type": "Feature", "properties": { "full_id": "w820249365", "osm_id": "820249365", "osm_type": "way", "man_made": "groyne", "material": "wood" }, "geometry": { "type": "LineString", "coordinates": [ [ 20.1706984, 54.9497582 ], [ 20.1698362, 54.9495548 ], [ 20.1695129, 54.9500588 ] ] } },
{ "type": "Feature", "properties": { "full_id": "w820249366", "osm_id": "820249366", "osm_type": "way", "man_made": "groyne", "material": "wood" }, "geometry": { "type": "LineString", "coordinates": [ [ 20.1698362, 54.9495548 ], [ 20.1692871, 54.9494546 ], [ 20.1692512, 54.9495136 ], [ 20.1689022, 54.9494428 ], [ 20.1686097, 54.9499233 ] ] } },
{ "type": "Feature", "properties": { "full_id": "w820249367", "osm_id": "820249367", "osm_type": "way", "man_made": "groyne", "material": "wood" }, "geometry": { "type": "LineString", "coordinates": [ [ 20.1722588, 54.9502223 ], [ 20.1718101, 54.9501147 ], [ 20.1717166, 54.9501617 ], [ 20.1714026, 54.9500765 ] ] } },
{ "type": "Feature", "properties": { "full_id": "w820249368", "osm_id": "820249368", "osm_type": "way", "man_made": "groyne", "material": "wood" }, "geometry": { "type": "LineString", "coordinates": [ [ 20.1722588, 54.9502223 ], [ 20.1724746, 54.9502799 ], [ 20.1726253, 54.9503259 ], [ 20.1727926, 54.9503755 ], [ 20.1729263, 54.9503958 ], [ 20.1731245, 54.9504172 ] ] } },
{ "type": "Feature", "properties": { "full_id": "w835144648", "osm_id": "835144648", "osm_type": "way", "man_made": "groyne", "material": "wood" }, "geometry": { "type": "LineString", "coordinates": [ [ 20.1662203, 54.9489056 ], [ 20.165332, 54.9487383 ], [ 20.1650053, 54.9492667 ] ] } },
{ "type": "Feature", "properties": { "full_id": "w835144649", "osm_id": "835144649", "osm_type": "way", "man_made": "groyne", "material": "wood" }, "geometry": { "type": "LineString", "coordinates": [ [ 20.1671071, 54.9490763 ], [ 20.1662203, 54.9489056 ], [ 20.1659167, 54.949403 ] ] } },
{ "type": "Feature", "properties": { "full_id": "w835144650", "osm_id": "835144650", "osm_type": "way", "man_made": "groyne", "material": "wood" }, "geometry": { "type": "LineString", "coordinates": [ [ 20.167946, 54.9493113 ], [ 20.1671071, 54.9490763 ], [ 20.1667933, 54.9495933 ] ] } },
{ "type": "Feature", "properties": { "full_id": "w835144651", "osm_id": "835144651", "osm_type": "way", "man_made": "groyne", "material": "wood" }, "geometry": { "type": "LineString", "coordinates": [ [ 20.1689022, 54.9494428 ], [ 20.167946, 54.9493113 ], [ 20.167651, 54.9498208 ] ] } },
{ "type": "Feature", "properties": { "full_id": "w1322483291", "osm_id": "1322483291", "osm_type": "way", "man_made": "groyne", "material": null }, "geometry": { "type": "LineString", "coordinates": [ [ 20.1500369, 54.946197 ], [ 20.1490967, 54.9461306 ], [ 20.1489536, 54.946667 ] ] } },
{ "type": "Feature", "properties": { "full_id": "w1322483292", "osm_id": "1322483292", "osm_type": "way", "man_made": "groyne", "material": null }, "geometry": { "type": "LineString", "coordinates": [ [ 20.1509853, 54.9462633 ], [ 20.1500369, 54.946197 ], [ 20.1498791, 54.946737 ] ] } },
{ "type": "Feature", "properties": { "full_id": "w1322483293", "osm_id": "1322483293", "osm_type": "way", "man_made": "groyne", "material": "wood" }, "geometry": { "type": "LineString", "coordinates": [ [ 20.1527964, 54.9464954 ], [ 20.1518899, 54.9463577 ], [ 20.1517385, 54.9468905 ] ] } },
{ "type": "Feature", "properties": { "full_id": "w1322483294", "osm_id": "1322483294", "osm_type": "way", "man_made": "groyne", "material": "wood" }, "geometry": { "type": "LineString", "coordinates": [ [ 20.1536967, 54.9466138 ], [ 20.1527964, 54.9464954 ], [ 20.1526366, 54.9470403 ] ] } },
{ "type": "Feature", "properties": { "full_id": "w1322483295", "osm_id": "1322483295", "osm_type": "way", "man_made": "groyne", "material": "wood" }, "geometry": { "type": "LineString", "coordinates": [ [ 20.1545885, 54.9467878 ], [ 20.1546074, 54.9467491 ], [ 20.1536967, 54.9466138 ], [ 20.1534884, 54.9471574 ] ] } },
{ "type": "Feature", "properties": { "full_id": "w1322483296", "osm_id": "1322483296", "osm_type": "way", "man_made": "groyne", "material": "wood" }, "geometry": { "type": "LineString", "coordinates": [ [ 20.1554803, 54.9469484 ], [ 20.1545885, 54.9467878 ], [ 20.1543003, 54.9472625 ] ] } },
{ "type": "Feature", "properties": { "full_id": "w1322483297", "osm_id": "1322483297", "osm_type": "way", "man_made": "groyne", "material": "wood" }, "geometry": { "type": "LineString", "coordinates": [ [ 20.1564142, 54.9470548 ], [ 20.1556675, 54.9469376 ], [ 20.1556275, 54.9469799 ], [ 20.1554803, 54.9469484 ], [ 20.1552006, 54.9474292 ] ] } },
{ "type": "Feature", "properties": { "full_id": "w1322483298", "osm_id": "1322483298", "osm_type": "way", "man_made": "groyne", "material": "wood" }, "geometry": { "type": "LineString", "coordinates": [ [ 20.1572661, 54.947277 ], [ 20.1564142, 54.9470548 ], [ 20.156105, 54.9475537 ] ] } },
{ "type": "Feature", "properties": { "full_id": "w1322483299", "osm_id": "1322483299", "osm_type": "way", "man_made": "groyne", "material": "wood" }, "geometry": { "type": "LineString", "coordinates": [ [ 20.1582315, 54.9473314 ], [ 20.1576404, 54.9473217 ], [ 20.1572661, 54.947277 ], [ 20.1569442, 54.9477759 ] ] } },
{ "type": "Feature", "properties": { "full_id": "w1322483300", "osm_id": "1322483300", "osm_type": "way", "man_made": "groyne", "material": "wood" }, "geometry": { "type": "LineString", "coordinates": [ [ 20.1591254, 54.9474739 ], [ 20.159157, 54.947428 ], [ 20.1582315, 54.9473314 ], [ 20.1579202, 54.947846 ] ] } },
{ "type": "Feature", "properties": { "full_id": "w1322483301", "osm_id": "1322483301", "osm_type": "way", "man_made": "groyne", "material": "wood" }, "geometry": { "type": "LineString", "coordinates": [ [ 20.1600635, 54.9476177 ], [ 20.1594809, 54.9474993 ], [ 20.1594514, 54.9475452 ], [ 20.1591254, 54.9474739 ], [ 20.158852, 54.947939 ] ] } },
{ "type": "Feature", "properties": { "full_id": "w1322483302", "osm_id": "1322483302", "osm_type": "way", "man_made": "groyne", "material": "wood" }, "geometry": { "type": "LineString", "coordinates": [ [ 20.1609217, 54.9478388 ], [ 20.1609637, 54.9477735 ], [ 20.1600635, 54.9476177 ], [ 20.1597417, 54.9481275 ] ] } },
{ "type": "Feature", "properties": { "full_id": "w1322483303", "osm_id": "1322483303", "osm_type": "way", "man_made": "groyne", "material": "wood" }, "geometry": { "type": "LineString", "coordinates": [ [ 20.1618177, 54.9479958 ], [ 20.1612624, 54.9478617 ], [ 20.1612288, 54.9479161 ], [ 20.1609217, 54.9478388 ], [ 20.1606272, 54.9483002 ] ] } },
{ "type": "Feature", "properties": { "full_id": "w1322483304", "osm_id": "1322483304", "osm_type": "way", "man_made": "groyne", "material": "wood" }, "geometry": { "type": "LineString", "coordinates": [ [ 20.1626843, 54.9481903 ], [ 20.1618177, 54.9479958 ], [ 20.1614959, 54.948514 ] ] } },
{ "type": "Feature", "properties": { "full_id": "w1322483305", "osm_id": "1322483305", "osm_type": "way", "man_made": "groyne", "material": "wood" }, "geometry": { "type": "LineString", "coordinates": [ [ 20.1635172, 54.9484512 ], [ 20.163553, 54.9483944 ], [ 20.1626843, 54.9481903 ], [ 20.1623625, 54.9487049 ] ] } },
{ "type": "Feature", "properties": { "full_id": "w1322483306", "osm_id": "1322483306", "osm_type": "way", "man_made": "groyne", "material": "wood" }, "geometry": { "type": "LineString", "coordinates": [ [ 20.16443, 54.9485792 ], [ 20.1638811, 54.9484621 ], [ 20.1638348, 54.9485164 ], [ 20.1635172, 54.9484512 ], [ 20.1632269, 54.9489284 ] ] } },
{ "type": "Feature", "properties": { "full_id": "w1322483307", "osm_id": "1322483307", "osm_type": "way", "man_made": "groyne", "material": "wood" }, "geometry": { "type": "LineString", "coordinates": [ [ 20.165332, 54.9487383 ], [ 20.16443, 54.9485792 ], [ 20.1641103, 54.9491023 ] ] } },
{ "type": "Feature", "properties": { "full_id": "w1322483308", "osm_id": "1322483308", "osm_type": "way", "man_made": "groyne", "material": "wood" }, "geometry": { "type": "LineString", "coordinates": [ [ 20.17892, 54.9515544 ], [ 20.1781943, 54.9523564 ] ] } },
{ "type": "Feature", "properties": { "full_id": "w1322483309", "osm_id": "1322483309", "osm_type": "way", "man_made": "groyne", "material": "wood" }, "geometry": { "type": "LineString", "coordinates": [ [ 20.1731245, 54.9504172 ], [ 20.1732999, 54.9504274 ], [ 20.1734092, 54.9503888 ], [ 20.1738509, 54.9504129 ] ] } }
]
}
