{
"type": "FeatureCollection",
"name": "sand",
"crs": { "type": "name", "properties": { "name": "urn:ogc:def:crs:OGC:1.3:CRS84" } },
"features": [
{ "type": "Feature", "properties": { "full_id": "r1949492", "osm_id": "1949492", "osm_type": "relation", "natural": "sand", "type": "multipolygon" }, "geometry": { "type": "MultiPolygon", "coordinates": [ [ [ [ 20.1838931, 54.9529327 ], [ 20.1827936, 54.9526087 ], [ 20.1824932, 54.952526 ], [ 20.1807579, 54.9519394 ], [ 20.179342, 54.9516294 ], [ 20.17876, 54.9514908 ], [ 20.1782101, 54.9513568 ], [ 20.1774803, 54.9512271 ], [ 20.1767305, 54.9510488 ], [ 20.1759113, 54.9508527 ], [ 20.1750507, 54.9506474 ], [ 20.1741869, 54.9504412 ], [ 20.1738268, 54.9503553 ], [ 20.1734144, 54.9503371 ], [ 20.1732869, 54.9503963 ], [ 20.1731179, 54.9503671 ], [ 20.1729718, 54.9503394 ], [ 20.1728779, 54.9503025 ], [ 20.1728457, 54.9503001 ], [ 20.1727894, 54.9502847 ], [ 20.1727398, 54.9502716 ], [ 20.1726633, 54.9502531 ], [ 20.172556, 54.9502216 ], [ 20.1724702, 54.9501923 ], [ 20.1723576, 54.9501722 ], [ 20.1722892, 54.9501577 ], [ 20.17221, 54.9501368 ], [ 20.1721282, 54.9501283 ], [ 20.1720451, 54.950096 ], [ 20.1719338, 54.9500683 ], [ 20.1717788, 54.950032 ], [ 20.1715931, 54.9499797 ], [ 20.1714617, 54.9499527 ], [ 20.1713464, 54.949922 ], [ 20.171109, 54.949861 ], [ 20.1707201, 54.9497525 ], [ 20.1699524, 54.9495679 ], [ 20.1695386, 54.9494875 ], [ 20.1690257, 54.9493954 ], [ 20.1684643, 54.9492103 ], [ 20.1684281, 54.9492234 ], [ 20.1683682, 54.9492449 ], [ 20.1683637, 54.9492465 ], [ 20.1682927, 54.9492611 ], [ 20.1681934, 54.9492619 ], [ 20.1681076, 54.9492511 ], [ 20.1680432, 54.9492303 ], [ 20.1679936, 54.9492034 ], [ 20.1679493, 54.9491571 ], [ 20.167928, 54.9491152 ], [ 20.1676707, 54.9490669 ], [ 20.1668433, 54.948909 ], [ 20.1667814, 54.9489168 ], [ 20.1654477, 54.9486515 ], [ 20.1653559, 54.9486566 ], [ 20.164478, 54.9484745 ], [ 20.1636125, 54.9483178 ], [ 20.1623429, 54.9480375 ], [ 20.1616477, 54.9478333 ], [ 20.1610774, 54.9476989 ], [ 20.1603763, 54.9475366 ], [ 20.1599242, 54.9474342 ], [ 20.1597458, 54.9474203 ], [ 20.1596023, 54.9474149 ], [ 20.1594904, 54.9474005 ], [ 20.1593891, 54.9473618 ], [ 20.1592536, 54.9473225 ], [ 20.1591557, 54.9473094 ], [ 20.1590659, 54.9473078 ], [ 20.1589667, 54.9473078 ], [ 20.1588929, 54.9473032 ], [ 20.1587829, 54.9472855 ], [ 20.1587141, 54.9472667 ], [ 20.1586535, 54.9472462 ], [ 20.1585388, 54.9472301 ], [ 20.1584557, 54.9472285 ], [ 20.1583698, 54.9472331 ], [ 20.1582719, 54.9472408 ], [ 20.1581834, 54.9472416 ], [ 20.158115, 54.9472378 ], [ 20.1580386, 54.9472231 ], [ 20.1579313, 54.9471939 ], [ 20.1578249, 54.9471871 ], [ 20.1576778, 54.9472031 ], [ 20.1574816, 54.9472049 ], [ 20.1573273, 54.9471755 ], [ 20.1572024, 54.9471175 ], [ 20.1570514, 54.9470555 ], [ 20.1569868, 54.9470472 ], [ 20.156898, 54.94703 ], [ 20.1567672, 54.9470221 ], [ 20.1566025, 54.9469907 ], [ 20.1564457, 54.9469143 ], [ 20.1563421, 54.9468919 ], [ 20.1562536, 54.9468811 ], [ 20.1561517, 54.9468819 ], [ 20.1560779, 54.9468811 ], [ 20.1559545, 54.9468688 ], [ 20.1558647, 54.9468465 ], [ 20.1557694, 54.9468134 ], [ 20.1556849, 54.9467941 ], [ 20.1556058, 54.9467841 ], [ 20.1554985, 54.9467825 ], [ 20.1554207, 54.9467887 ], [ 20.1553121, 54.9467872 ], [ 20.1551619, 54.9467679 ], [ 20.1549895, 54.9467138 ], [ 20.1549056, 54.9466919 ], [ 20.1543595, 54.9465507 ], [ 20.1535206, 54.9464265 ], [ 20.1517042, 54.9462202 ], [ 20.1514098, 54.9462279 ], [ 20.1512929, 54.9462257 ], [ 20.1512212, 54.9462191 ], [ 20.1509732, 54.9462282 ], [ 20.1507807, 54.9461885 ], [ 20.1503371, 54.9461576 ], [ 20.1490804, 54.9460194 ], [ 20.1474064, 54.9459674 ], [ 20.1473346, 54.9459674 ], [ 20.1470476, 54.9459591 ], [ 20.146983, 54.9459509 ], [ 20.1472238, 54.9459222 ], [ 20.1474233, 54.9458643 ], [ 20.1491645, 54.9459934 ], [ 20.1504949, 54.9460905 ], [ 20.1511885, 54.9461403 ], [ 20.1518307, 54.9462047 ], [ 20.1539286, 54.9464271 ], [ 20.1539886, 54.9464396 ], [ 20.1543539, 54.9464929 ], [ 20.1546193, 54.9465356 ], [ 20.1548216, 54.9465125 ], [ 20.1557969, 54.9465999 ], [ 20.1564095, 54.9466494 ], [ 20.1571769, 54.9467461 ], [ 20.1576774, 54.9468125 ], [ 20.1579052, 54.9468487 ], [ 20.1580502, 54.946864 ], [ 20.1582193, 54.9468907 ], [ 20.1587164, 54.9469663 ], [ 20.1598486, 54.9471005 ], [ 20.1607641, 54.9472676 ], [ 20.1614323, 54.9474135 ], [ 20.1630915, 54.9478077 ], [ 20.1645642, 54.9481489 ], [ 20.1652001, 54.9482921 ], [ 20.1658604, 54.9484191 ], [ 20.1664443, 54.9485279 ], [ 20.1671056, 54.9486761 ], [ 20.167868, 54.9488001 ], [ 20.1682729, 54.948846 ], [ 20.1685676, 54.9489168 ], [ 20.1687678, 54.9489912 ], [ 20.1690217, 54.9490884 ], [ 20.1697949, 54.949222 ], [ 20.170183, 54.9493032 ], [ 20.1706405, 54.9494051 ], [ 20.1711659, 54.9495106 ], [ 20.1714148, 54.9495742 ], [ 20.1718401, 54.9495801 ], [ 20.1722785, 54.9496618 ], [ 20.1725763, 54.9496817 ], [ 20.1728657, 54.9497183 ], [ 20.1730681, 54.9497058 ], [ 20.1732347, 54.9497347 ], [ 20.1734283, 54.949823 ], [ 20.1734803, 54.9498751 ], [ 20.1734483, 54.9499909 ], [ 20.1736661, 54.9501851 ], [ 20.1739497, 54.9502079 ], [ 20.1741301, 54.9502475 ], [ 20.1741507, 54.9502534 ], [ 20.1742719, 54.9502882 ], [ 20.174321, 54.9503289 ], [ 20.1745445, 54.9503853 ], [ 20.1748608, 54.9504416 ], [ 20.1751116, 54.9504917 ], [ 20.1751497, 54.9505199 ], [ 20.1752806, 54.9505669 ], [ 20.1754496, 54.9505669 ], [ 20.1755859, 54.9505857 ], [ 20.1759022, 54.9506232 ], [ 20.1762293, 54.9507328 ], [ 20.1762784, 54.9507516 ], [ 20.176491, 54.9507892 ], [ 20.1765456, 54.9508048 ], [ 20.1767201, 54.9508863 ], [ 20.1767746, 54.9509082 ], [ 20.1768346, 54.950927 ], [ 20.1770963, 54.9509583 ], [ 20.1773744, 54.9509958 ], [ 20.177418, 54.9510209 ], [ 20.1776034, 54.951071 ], [ 20.1776688, 54.9510804 ], [ 20.177876, 54.9510647 ], [ 20.1779305, 54.9510773 ], [ 20.1780777, 54.9511336 ], [ 20.1781159, 54.9511618 ], [ 20.1782468, 54.9512119 ], [ 20.1783776, 54.951215 ], [ 20.1784267, 54.9512338 ], [ 20.1788193, 54.951309 ], [ 20.1789774, 54.9513747 ], [ 20.1790919, 54.9513935 ], [ 20.179122, 54.951389 ], [ 20.1794027, 54.951406 ], [ 20.1794924, 54.9514519 ], [ 20.1796535, 54.9515344 ], [ 20.1798007, 54.9516158 ], [ 20.1799752, 54.9516503 ], [ 20.1801279, 54.9516753 ], [ 20.1802642, 54.9517442 ], [ 20.1803569, 54.9517505 ], [ 20.1804714, 54.9517818 ], [ 20.1805313, 54.9517943 ], [ 20.1807004, 54.9518381 ], [ 20.1808149, 54.9518851 ], [ 20.1813329, 54.9519947 ], [ 20.1814256, 54.9520636 ], [ 20.1815401, 54.952098 ], [ 20.181829, 54.9521419 ], [ 20.1820689, 54.9522076 ], [ 20.1829141, 54.9524299 ], [ 20.1830613, 54.9524393 ], [ 20.1831922, 54.9524581 ], [ 20.1832467, 54.9525458 ], [ 20.1832849, 54.952574 ], [ 20.1833448, 54.9525959 ], [ 20.1833994, 54.9526115 ], [ 20.1836829, 54.9526616 ], [ 20.1838137, 54.9526585 ], [ 20.1838955, 54.9526898 ], [ 20.1838955, 54.9527524 ], [ 20.1839828, 54.9527869 ], [ 20.1840973, 54.9528245 ], [ 20.184033, 54.9528568 ], [ 20.1838931, 54.9529327 ] ] ], [ [ [ 20.2073077, 54.9584133 ], [ 20.20704, 54.9583051 ], [ 20.2070237, 54.958291 ], [ 20.2069446, 54.9582096 ], [ 20.206931, 54.9581956 ], [ 20.206858, 54.958131 ], [ 20.2068247, 54.9581016 ], [ 20.2066175, 54.9580594 ], [ 20.2059168, 54.9580422 ], [ 20.2057887, 54.958014 ], [ 20.2057614, 54.958003 ], [ 20.205696, 54.9579514 ], [ 20.205551, 54.9579523 ], [ 20.2053505, 54.9578991 ], [ 20.2051153, 54.9578482 ], [ 20.2046951, 54.9577752 ], [ 20.2045486, 54.9577132 ], [ 20.2045332, 54.9576933 ], [ 20.2044291, 54.9576711 ], [ 20.2043828, 54.9576711 ], [ 20.2042671, 54.9576645 ], [ 20.2042247, 54.9576534 ], [ 20.2041823, 54.9576446 ], [ 20.2040088, 54.9575782 ], [ 20.2036502, 54.9575449 ], [ 20.203577, 54.9575228 ], [ 20.2035539, 54.9575029 ], [ 20.2035114, 54.9574542 ], [ 20.2034729, 54.9574409 ], [ 20.2031876, 54.957421 ], [ 20.2030642, 54.9574298 ], [ 20.2030218, 54.957421 ], [ 20.2028136, 54.9573634 ], [ 20.2026324, 54.9573214 ], [ 20.2026208, 54.9572992 ], [ 20.2026401, 54.9572638 ], [ 20.2026054, 54.9572461 ], [ 20.2021235, 54.9571863 ], [ 20.2020811, 54.957173 ], [ 20.2020386, 54.957162 ], [ 20.2018574, 54.9571088 ], [ 20.2018189, 54.9570933 ], [ 20.2017302, 54.9570668 ], [ 20.2014308, 54.9569792 ], [ 20.2011254, 54.9569291 ], [ 20.2008364, 54.9568477 ], [ 20.2007874, 54.9568258 ], [ 20.2006107, 54.95679 ], [ 20.2004329, 54.9567475 ], [ 20.1998768, 54.9566724 ], [ 20.1993112, 54.9565381 ], [ 20.1991358, 54.9565102 ], [ 20.19884, 54.9564722 ], [ 20.1986621, 54.9564599 ], [ 20.1984595, 54.9564433 ], [ 20.1981406, 54.9563978 ], [ 20.1979947, 54.9564023 ], [ 20.1977634, 54.95641 ], [ 20.197658, 54.9564007 ], [ 20.197554, 54.956353 ], [ 20.1974941, 54.9563468 ], [ 20.1972105, 54.9563812 ], [ 20.1971505, 54.9563906 ], [ 20.1968633, 54.9565175 ], [ 20.1963376, 54.9565426 ], [ 20.1960612, 54.9566461 ], [ 20.1958469, 54.956659 ], [ 20.1955866, 54.9565518 ], [ 20.1948972, 54.9564768 ], [ 20.1939764, 54.9561896 ], [ 20.1938982, 54.9562459 ], [ 20.1942839, 54.9563712 ], [ 20.1948783, 54.956489 ], [ 20.1955098, 54.9565632 ], [ 20.195758, 54.9566249 ], [ 20.1958387, 54.9566742 ], [ 20.1960487, 54.9566656 ], [ 20.1962294, 54.9566104 ], [ 20.1963423, 54.956559 ], [ 20.196859, 54.9565343 ], [ 20.1969236, 54.9565343 ], [ 20.1979857, 54.9565467 ], [ 20.1980574, 54.9565549 ], [ 20.1981346, 54.9565616 ], [ 20.1986061, 54.9566025 ], [ 20.1988181, 54.9566209 ], [ 20.1994927, 54.9567486 ], [ 20.200605, 54.9570164 ], [ 20.2006696, 54.9570288 ], [ 20.2016097, 54.9572389 ], [ 20.2034181, 54.9577004 ], [ 20.2042865, 54.9578941 ], [ 20.205162, 54.9580589 ], [ 20.2058796, 54.9581743 ], [ 20.20626, 54.9582443 ], [ 20.2063246, 54.9582526 ], [ 20.2066475, 54.9582567 ], [ 20.2067121, 54.9582608 ], [ 20.2073077, 54.9584133 ] ] ] ] } }
]
}
